TDRS 3                  
1 19548U 88091B   24267.18938120 -.00000307  00000+0  00000+0 0  9995
2 19548  13.0878 345.2334 0035597 334.2491  62.4204  1.00270969119053
FLTSATCOM 8 (USA 46)    
1 20253U 89077A   24266.62213909 -.00000376  00000+0  00000+0 0  9990
2 20253  12.6050 354.9494 0004499 185.1751 171.3833  1.00263309254270
SKYNET 4C               
1 20776U 90079A   24260.99077167  .00000124  00000+0  00000+0 0  9992
2 20776  13.5464 354.1522 0003588 193.5870 198.6982  1.00272123124497
TDRS 5                  
1 21639U 91054B   24265.05902811 -.00000308  00000+0  00000+0 0  9995
2 21639  14.1506 358.4001 0006671 229.8539  91.0706  1.00266473121353
TDRS 6                  
1 22314U 93003B   24267.16001543 -.00000304  00000+0  00000+0 0  9994
2 22314  14.1668   1.6875 0011634 175.3249 197.2634  1.00274912116043
UFO 2 (USA 95)          
1 22787U 93056A   24266.96036438  .00000116  00000+0  00000+0 0  9994
2 22787  11.6863   6.8626 0004103 188.9684 180.8591  1.00273197112212
USA 99 (MILSTAR-1 1)    
1 22988U 94009A   24267.36582698 -.00000208  00000+0  00000+0 0  9998
2 22988  16.6628  34.4160 0002745 172.1276 197.8897  1.00271570 26620
UFO 4 (USA 108)         
1 23467U 95003A   24267.55729118 -.00000032  00000+0  00000+0 0  9992
2 23467   9.6943  15.1629 0005377 171.5282 189.1409  1.00270775108614
TDRS 7                  
1 23613U 95035B   24266.69389617 -.00000208  00000+0  00000+0 0  9995
2 23613  13.6417 352.5389 0024461  77.1869 266.8270  1.00267226106902
USA 115 (MILSTAR-1 2)   
1 23712U 95060A   24267.35327017 -.00000029  00000+0  00000+0 0  9994
2 23712  13.8385   8.3220 0002580 220.8724 140.6771  1.00270331 26551
INMARSAT 3-F1           
1 23839U 96020A   24267.58799303  .00000021  00000+0  00000+0 0  9998
2 23839   9.2723  52.0927 0008549 136.0569 211.8612  1.00000326103930
INMARSAT 3-F2           
1 24307U 96053A   24266.95535521  .00000006  00000+0  00000+0 0  9998
2 24307   8.4096  60.0425 0006977 109.3050 246.5121  0.99976144102596
INMARSAT 3-F3           
1 24674U 96070A   24267.30440257 -.00000287  00000+0  00000+0 0  9997
2 24674   8.9376  55.3729 0007433 141.6182 236.0162  1.00001073101597
GALAXY 25 (G-25)        
1 24812U 97026A   24267.54317337  .00000013  00000+0  00000+0 0  9997
2 24812   5.7872  75.0032 0005673  44.2546 161.6310  0.99087647 99962
AMC-3                   
1 24936U 97050A   24267.44941912 -.00000272  00000+0  00000+0 0  9990
2 24936   6.5876  71.1038 0002846 122.0327 259.4392  1.00270117 46109
USA 134                 
1 25019U 97065A   24267.42523921 -.00000073  00000+0  00000+0 0  9992
2 25019  12.0270  26.1838 0002485 198.7415 178.8102  1.00274207 26629
INMARSAT 3-F5           
1 25153U 98006B   24267.46110449 -.00000300  00000+0  00000+0 0  9991
2 25153   8.2665  59.2042 0004928 136.0601 279.5354  1.00268850 97569
ASTRA 2A                
1 25462U 98050A   24267.53813431  .00000056  00000+0  00000+0 0  9999
2 25462   5.4928  76.3059 0003099 112.2942  65.1947  1.00272712 40009
SKYNET 4E               
1 25639U 99009B   24267.02595904 -.00000044  00000+0  00000+0 0  9994
2 25639  11.6889  12.5402 0003034 184.9924 172.9604  1.00272532 45045
ABS-6                   
1 25924U 99053A   24267.50882796 -.00000132  00000+0  00000+0 0  9999
2 25924   0.0039 183.8126 0001647 334.3242 186.8966  1.00271141 91500
UFO 10 (USA 146)        
1 25967U 99063A   24267.18382667 -.00000196  00000+0  00000+0 0  9993
2 25967   9.5456  30.2001 0005652 182.7976 192.9577  1.00271595 91015
GALAXY 11 (G-11)        
1 26038U 99071A   24267.55919975 -.00000067  00000+0  00000+0 0  9998
2 26038   5.1180  78.0025 0000964 197.2257  95.2592  1.00271820 90743
USA 148                 
1 26052U 00001A   24267.60455139  .00000026  00000+0  00000+0 0  9996
2 26052  10.8698  37.0314 0002591 203.7706 159.9417  1.00273901 26635
ASIASTAR                
1 26107U 00016A   24267.50257583 -.00000344  00000+0  00000+0 0  9999
2 26107   7.6380  64.5810 0004898 131.9644  92.2169  1.00269039 89582
USA 149 (DSP 20)        
1 26356U 00024A   24263.33241730  .00000095  00000+0  00000+0 0  9990
2 26356  12.6880  16.1706 0001301 245.8984  52.0120  1.00289883 26530
TDRS 8                  
1 26388U 00034A   24267.52688333  .00000086  00000+0  00000+0 0  9995
2 26388  11.6838  36.4095 0005662 194.4126 154.2675  1.00277709 88840
INTELSAT 9 (IS-9)       
1 26451U 00043A   24267.53761302  .00000065  00000+0  00000+0 0  9992
2 26451   8.9973  54.8091 0005021 141.5478  51.4505  1.00422168 88517
NSS-11                  
1 26554U 00059A   24267.57141243  .00000013  00000+0  00000+0 0  9996
2 26554   0.4839  88.2904 0003061 103.1280 193.1928  1.00271887 34952
USA 153                 
1 26575U 00065A   24267.30885985 -.00000334  00000+0  00000+0 0  9992
2 26575  10.5251  40.2901 0002110 207.5794   0.4432  1.00273458 26590
AMC-6                   
1 26580U 00067A   24267.31463177  .00000093  00000+0  00000+0 0  9997
2 26580   0.0573  76.9007 0002225 100.7636 159.2461  1.00272484 87552
INTELSAT 1R (IS-1R)     
1 26608U 00072A   24267.57514535  .00000049  00000+0  00000+0 0  9998
2 26608   6.4930  71.6003 0006082 123.5815 258.2496  0.98968417 34986
ANIK F1                 
1 26624U 00076A   24267.42709153 -.00000074  00000+0  00000+0 0  9995
2 26624   3.5529  82.4870 0007941  79.2024 245.6332  1.00272089 36801
